NORAD_CAT_ID,OBJECT_NAME,OBJECT_TYPE,EPOCH,MEAN_MOTION,ECCENTRICITY,INCLINATION,RA_OF_ASC_NODE,ARG_OF_PERICENTER,MEAN_ANOMALY,BSTAR,MEAN_MOTION_DOT,MEAN_MOTION_DDOT,TLE_LINE0,TLE_LINE1,TLE_LINE2,SEMIMAJOR_AXIS,PERIOD,APOGEE,PERIGEE,DECAYED
51769.0,STARLINK-3621,PAYLOAD,2023-05-28 21:19:02,15.08840602,0.0001025,53.2158,219.226,75.5146,284.596,2.4812e-05,1.07e-06,0.0,0 STARLINK-3621,1 51769U 22017B   23148.88822505  .00000107  00000-0  24812-4 0  9995,2 51769  53.2158 219.2260 0001025  75.5146 284.5960 15.08840602 69252,6917.879,95.438,540.453,539.034,0.0
51769.0,STARLINK-3621,PAYLOAD,2023-05-29 10:02:07,15.08837773,0.0001051,53.2157,216.8473,75.4135,284.6974,2.2496e-05,7e-07,0.0,0 STARLINK-3621,1 51769U 22017B   23149.41814739  .00000070  00000-0  22496-4 0  9990,2 51769  53.2157 216.8473 0001051  75.4135 284.6974 15.08837773 70787,6917.887,95.438,540.479,539.025,0.0
51769.0,STARLINK-3621,PAYLOAD,2023-05-29 11:37:30,15.08838776,0.000106,53.2157,216.5499,75.5558,284.5551,3.0236e-05,1.93e-06,0.0,0 STARLINK-3621,1 51769U 22017B   23149.48438647  .00000193  00000-0  30236-4 0  9994,2 51769  53.2157 216.5499 0001060  75.5558 284.5551 15.08838776 69346,6917.884,95.438,540.482,539.016,0.0
51769.0,STARLINK-3621,PAYLOAD,2023-05-29 21:09:50,15.08834238,0.0001128,53.2163,214.7645,74.7594,285.3522,1.9199e-05,1.8e-07,0.0,0 STARLINK-3621,1 51769U 22017B   23149.88183030  .00000018  00000-0  19199-4 0  9992,2 51769  53.2163 214.7645 0001128  74.7594 285.3522 15.08834238 69405,6917.898,95.438,540.543,538.983,0.0
51769.0,STARLINK-3621,PAYLOAD,2023-05-30 08:17:32,15.0883327,0.0001146,53.2162,212.6829,76.5988,283.5132,-2.5406e-05,-6.92e-06,0.0,0 STARLINK-3621,1 51769U 22017B   23150.34551407 -.00000692  00000-0 -25406-4 0  9990,2 51769  53.2162 212.6829 0001146  76.5988 283.5132 15.08833270 70923,6917.901,95.438,540.559,538.973,0.0
51769.0,STARLINK-3621,PAYLOAD,2023-05-30 13:03:41,15.08835294,0.0001163,53.2161,211.7909,75.7213,284.3908,-6.7521e-06,-3.95e-06,0.0,0 STARLINK-3621,1 51769U 22017B   23150.54423291 -.00000395  00000-0 -67521-5 0  9996,2 51769  53.2161 211.7909 0001163  75.7213 284.3908 15.08835294 69502,6917.895,95.438,540.564,538.955,0.0
51769.0,STARLINK-3621,PAYLOAD,2023-05-30 21:00:37,15.08836521,0.0001212,53.2168,210.3041,79.7519,280.361,1.3777e-05,-6.9e-07,0.0,0 STARLINK-3621,1 51769U 22017B   23150.87543218 -.00000069  00000-0  13777-4 0  9994,2 51769  53.2168 210.3041 0001212  79.7519 280.3610 15.08836521 69554,6917.891,95.438,540.594,538.918,0.0
51769.0,STARLINK-3621,PAYLOAD,2023-05-31 09:43:42,15.08841382,9.88e-05,53.2148,207.9259,82.36,277.7505,4.5854e-05,4.42e-06,0.0,0 STARLINK-3621,1 51769U 22017B   23151.40534810  .00000442  00000-0  45854-4 0  9997,2 51769  53.2148 207.9259 0000988  82.3600 277.7505 15.08841382 71080,6917.876,95.437,540.425,539.058,0.0
51769.0,STARLINK-3621,PAYLOAD,2023-05-31 11:19:05,15.08841902,9.88e-05,53.2149,207.6285,82.0047,278.1057,4.9558e-05,5.01e-06,0.0,0 STARLINK-3621,1 51769U 22017B   23151.47158763  .00000501  00000-0  49558-4 0  9994,2 51769  53.2149 207.6285 0000988  82.0047 278.1057 15.08841902 69643,6917.875,95.437,540.423,539.056,0.0
51769.0,STARLINK-3621,PAYLOAD,2023-05-31 20:51:23,15.08840945,9.71e-05,53.215,205.8445,83.2433,276.8669,5.6559e-05,6.13e-06,0.0,0 STARLINK-3621,1 51769U 22017B   23151.86902763  .00000613  00000-0  56559-4 0  9997,2 51769  53.2150 205.8445 0000971  83.2433 276.8669 15.08840945 69704,6917.878,95.437,540.414,539.071,0.0
51769.0,STARLINK-3621,PAYLOAD,2023-06-01 11:09:52,15.08842733,9.94e-05,53.2151,203.1687,82.6516,277.4589,7.8767e-05,9.66e-06,0.0,0 STARLINK-3621,1 51769U 22017B   23152.46518664  .00000966  00000-0  78767-4 0  9993,2 51769  53.2151 203.1687 0000994  82.6516 277.4589 15.08842733 69798,6917.872,95.437,540.425,539.049,0.0
51769.0,STARLINK-3621,PAYLOAD,2023-06-01 20:42:11,15.08839043,0.0001006,53.2151,201.3848,81.4498,278.6608,4.3188e-05,4e-06,0.0,0 STARLINK-3621,1 51769U 22017B   23152.86263003  .00000400  00000-0  43188-4 0  9993,2 51769  53.2151 201.3848 0001006  81.4498 278.6608 15.08839043 71303,6917.883,95.438,540.444,539.052,0.0
51769.0,STARLINK-3621,PAYLOAD,2023-06-02 09:25:16,15.08833938,0.0001161,53.2156,199.0072,79.8414,280.2709,-3.068e-05,-7.76e-06,0.0,0 STARLINK-3621,1 51769U 22017B   23153.39255713 -.00000776  00000-0 -30680-4 0  9992,2 51769  53.2156 199.0072 0001161  79.8414 280.2709 15.08833938 71387,6917.899,95.438,540.567,538.961,0.0
51769.0,STARLINK-3621,PAYLOAD,2023-06-02 20:32:58,15.0883886,0.0001169,53.2157,196.9257,79.0234,281.0889,4.5969e-06,-2.15e-06,0.0,0 STARLINK-3621,1 51769U 22017B   23153.85623376 -.00000215  00000-0  45969-5 0  9991,2 51769  53.2157 196.9257 0001169  79.0234 281.0889 15.08838860 70004,6917.884,95.438,540.558,538.94,0.0
51769.0,STARLINK-3621,PAYLOAD,2023-06-03 02:54:30,15.0884205,0.0001156,53.2154,195.7356,80.0297,280.0825,4.1366e-05,3.71e-06,0.0,0 STARLINK-3621,1 51769U 22017B   23154.12119025  .00000371  00000-0  41366-4 0  9991,2 51769  53.2154 195.7356 0001156  80.0297 280.0825 15.08842050 71494,6917.874,95.437,540.539,538.939,0.0
51769.0,STARLINK-3621,PAYLOAD,2023-06-03 12:26:49,15.08842777,0.0001044,53.2151,193.9501,90.4598,269.6514,3.4853e-05,2.67e-06,0.0,0 STARLINK-3621,1 51769U 22017B   23154.51862888  .00000267  00000-0  34853-4 0  9993,2 51769  53.2151 193.9501 0001044  90.4598 269.6514 15.08842777 70109,6917.872,95.437,540.459,539.015,0.0
51769.0,STARLINK-3621,PAYLOAD,2023-06-04 09:06:50,15.08837719,0.0001024,53.2153,190.0845,85.5723,274.5386,9.0376e-05,1.151e-05,0.0,0 STARLINK-3621,1 51769U 22017B   23155.37975080  .00001151  00000-0  90376-4 0  9992,2 51769  53.2153 190.0845 0001024  85.5723 274.5386 15.08837719 71689,6917.887,95.438,540.461,539.044,0.0
51769.0,STARLINK-3621,PAYLOAD,2023-06-05 10:33:00,15.0883925,0.000103,53.2156,185.3266,85.9617,274.1493,-2.848e-06,-3.33e-06,0.0,0 STARLINK-3621,1 51769U 22017B   23156.43959345 -.00000333  00000-0 -28480-5 0  9997,2 51769  53.2156 185.3266 0001030  85.9617 274.1493 15.08839250 71844,6917.883,95.438,540.46,539.035,0.0
51769.0,STARLINK-3621,PAYLOAD,2023-06-05 18:29:56,15.08837106,0.0001031,53.2155,183.8398,85.0143,275.0967,-1.5304e-05,-5.31e-06,0.0,0 STARLINK-3621,1 51769U 22017B   23156.77079555 -.00000531  00000-0 -15304-4 0  9990,2 51769  53.2155 183.8398 0001031  85.0143 275.0967 15.08837106 70447,6917.889,95.438,540.467,539.041,0.0
51769.0,STARLINK-3621,PAYLOAD,2023-06-06 07:13:02,15.0883428,0.0001022,53.2156,181.4611,86.6533,273.4576,-6.1745e-06,-3.86e-06,0.0,0 STARLINK-3621,1 51769U 22017B   23157.30071839 -.00000386  00000-0 -61745-5 0  9996,2 51769  53.2156 181.4611 0001022  86.6533 273.4576 15.08834280 70527,6917.898,95.438,540.47,539.056,0.0
51769.0,STARLINK-3621,PAYLOAD,2023-06-07 10:14:35,15.08837873,0.0001001,53.2157,176.4061,85.8841,274.2266,3.9427e-05,3.4e-06,0.0,0 STARLINK-3621,1 51769U 22017B   23158.42679748  .00000340  00000-0  39427-4 0  9992,2 51769  53.2157 176.4061 0001001  85.8841 274.2266 15.08837873 72147,6917.887,95.438,540.444,539.059,0.0
51769.0,STARLINK-3621,PAYLOAD,2023-06-07 18:11:31,15.08836947,9.89e-05,53.2156,174.9192,87.8696,272.241,3.8222e-05,3.21e-06,0.0,0 STARLINK-3621,1 51769U 22017B   23158.75799856  .00000321  00000-0  38222-4 0  9992,2 51769  53.2156 174.9192 0000989  87.8696 272.2410 15.08836947 70742,6917.89,95.438,540.439,539.071,0.0
51769.0,STARLINK-3621,PAYLOAD,2023-06-08 08:29:59,15.08838377,9.88e-05,53.2156,172.2426,87.3342,272.7763,6.5344e-05,7.52e-06,0.0,0 STARLINK-3621,1 51769U 22017B   23159.35415799  .00000752  00000-0  65344-4 0  9993,2 51769  53.2156 172.2426 0000988  87.3342 272.7763 15.08838377 70830,6917.885,95.438,540.434,539.067,0.0
51769.0,STARLINK-3621,PAYLOAD,2023-06-08 18:02:18,15.08837423,9.82e-05,53.215,170.4584,85.8441,274.2664,3.974e-05,3.45e-06,0.0,0 STARLINK-3621,1 51769U 22017B   23159.75159988  .00000345  00000-0  39740-4 0  9991,2 51769  53.2150 170.4584 0000982  85.8441 274.2664 15.08837423 72342,6917.888,95.438,540.433,539.074,0.0
51769.0,STARLINK-3621,PAYLOAD,2023-06-09 09:56:09,15.0883819,0.0001033,53.2153,167.4844,85.5261,274.5849,1.7869e-05,-3e-08,0.0,0 STARLINK-3621,1 51769U 22017B   23160.41400121 -.00000003  00000-0  17869-4 0  9994,2 51769  53.2153 167.4844 0001033  85.5261 274.5849 15.08838190 70994,6917.886,95.438,540.466,539.036,0.0
51769.0,STARLINK-3621,PAYLOAD,2023-06-09 17:53:05,15.08838797,0.0001042,53.2156,165.9978,84.376,275.7351,2.5538e-05,1.19e-06,0.0,0 STARLINK-3621,1 51769U 22017B   23160.74520077  .00000119  00000-0  25538-4 0  9992,2 51769  53.2156 165.9978 0001042  84.3760 275.7351 15.08838797 71040,6917.884,95.438,540.47,539.028,0.0
51769.0,STARLINK-3621,PAYLOAD,2023-06-10 00:14:37,15.08839723,0.0001049,53.2157,164.8084,83.4637,276.6474,2.3549e-05,8.7e-07,0.0,0 STARLINK-3621,1 51769U 22017B   23161.01016043  .00000087  00000-0  23549-4 0  9990,2 51769  53.2157 164.8084 0001049  83.4637 276.6474 15.08839723 72538,6917.881,95.438,540.472,539.021,0.0
51769.0,STARLINK-3621,PAYLOAD,2023-06-10 09:46:56,15.08840502,0.0001057,53.2157,163.0245,81.6753,278.4359,2.9825e-05,1.87e-06,0.0,0 STARLINK-3621,1 51769U 22017B   23161.40759966  .00000187  00000-0  29825-4 0  9995,2 51769  53.2157 163.0245 0001057  81.6753 278.4359 15.08840502 71141,6917.879,95.438,540.475,539.013,0.0
51769.0,STARLINK-3621,PAYLOAD,2023-06-10 17:43:46,15.08901905,7.95e-05,53.2156,161.5367,77.1243,282.9838,0.00052466,8.086e-05,0.0,0 STARLINK-3621,1 51769U 22017B   23161.73873643  .00008086  00000-0  52466-3 0  9992,2 51769  53.2156 161.5367 0000795  77.1243 282.9838 15.08901905 72643,6917.691,95.434,540.106,539.006,0.0
51769.0,STARLINK-3621,PAYLOAD,2023-06-11 00:05:23,15.08845632,0.0001235,53.2158,160.3476,93.8188,266.2946,5.9072e-05,6.53e-06,0.0,0 STARLINK-3621,1 51769U 22017B   23162.00374346  .00000653  00000-0  59072-4 0  9992,2 51769  53.2158 160.3476 0001235  93.8188 266.2946 15.08845632 72689,6917.863,95.437,540.583,538.874,0.0
